{
    "asyut": [
        {
            "postal_code": 71525,
            "address": "Recruitment conf / conf",
            "post_office": "Recruitment of Assiut",
            "lat": 27.1783117,
            "lng": 31.1859257
        },
        {
            "postal_code": 71511,
            "address": "Conf / New Movement Center Building",
            "post_office": "Assiut",
            "lat": 27.1783117,
            "lng": 31.1859257
        },
        {
            "postal_code": 71717,
            "address": "Abnoub / Port Said St. Center",
            "post_office": "Abnoub",
            "lat": 27.1783117,
            "lng": 31.1859257
        },
        {
            "postal_code": 71641,
            "address": "Abu Tig Center / next to the station",
            "post_office": "Obotej",
            "lat": 27.0422227,
            "lng": 31.3207544
        },
        {
            "postal_code": 71654,
            "address": "Or deficiencies / Manfalot Center",
            "post_office": "Or deficiencies",
            "lat": 27.3113959,
            "lng": 30.9714843
        },
        {
            "postal_code": 71753,
            "address": "Children of despair / Sadfa Center",
            "post_office": "The children of Elias",
            "lat": 26.9662311,
            "lng": 31.3850048
        },
        {
            "postal_code": 71727,
            "address": "Badari Center / u divans",
            "post_office": "Badari Albulaazh",
            "lat": 26.9916626,
            "lng": 31.4133146
        },
        {
            "postal_code": 71738,
            "address": "Albulaazh / Obotej Center / Hospital St.",
            "post_office": "Albulaazh",
            "lat": 27.0490594,
            "lng": 31.3174436
        },
        {
            "postal_code": 71513,
            "address": "Red / conf Center",
            "post_office": "Red Assiut",
            "lat": 27.1783117,
            "lng": 31.1859257
        },
        {
            "postal_code": 71716,
            "address": "Alhuatch / Manfalot / u Arabism Center",
            "post_office": "Alhuatch",
            "lat": 27.1783117,
            "lng": 31.1859257
        },
        {
            "postal_code": 71751,
            "address": "Dwair / Sadfa Center",
            "post_office": "Dwair",
            "lat": 27.1783117,
            "lng": 31.1859257
        },
        {
            "postal_code": 71633,
            "address": "Muharraq Monastery / Qusiya Center / Mar Girgis Church",
            "post_office": "Muharraq Monastery",
            "lat": 27.3845527,
            "lng": 30.7788044
        },
        {
            "postal_code": 71737,
            "address": "Abu Tig Center / u point",
            "post_office": "Carpets Abu Tig Center",
            "lat": 27.0422227,
            "lng": 31.3207544
        },
        {
            "postal_code": 71634,
            "address": "Qusiya Center - Village Alsracna / Central St.",
            "post_office": "Alsracna",
            "lat": 27.4393096,
            "lng": 30.8171333
        },
        {
            "postal_code": 71729,
            "address": "Badari center / unit collected",
            "post_office": "Hobble tribal",
            "lat": 26.9916626,
            "lng": 31.4133146
        },
        {
            "postal_code": 71631,
            "address": "Qusiya / Qusiya Center",
            "post_office": "Qusiya",
            "lat": 27.4393096,
            "lng": 30.8171333
        },
        {
            "postal_code": 71745,
            "address": "Obedient / conf Center",
            "post_office": "Obedient",
            "lat": 27.1783117,
            "lng": 31.1859257
        },
        {
            "postal_code": 71747,
            "address": "Nekheila / Obotej Center / next to the police station",
            "post_office": "Nekheila",
            "lat": 27.1871828,
            "lng": 31.17560169999999
        },
        {
            "postal_code": 71733,
            "address": "Alnoorh / Badari Center",
            "post_office": "Alnoorh",
            "lat": 26.9916626,
            "lng": 31.4133146
        },
        {
            "postal_code": 71722,
            "address": "Wasta / center opening",
            "post_office": "Wasta Assiut",
            "lat": 27.1783117,
            "lng": 31.1859257
        },
        {
            "postal_code": 71517,
            "address": "Neonatal / Assiut Center",
            "post_office": "Neonatal",
            "lat": 27.1783117,
            "lng": 31.1859257
        },
        {
            "postal_code": 71644,
            "address": "Brown listens and / Obotej Center / School next Ambassador",
            "post_office": "Brown is Hearing",
            "lat": 27.0490594,
            "lng": 31.3174436
        },
        {
            "postal_code": 71622,
            "address": "Built Adiat / Manfalot Center / next Mrkzchaabab built Adiat",
            "post_office": "Built Adiat",
            "lat": 27.3113959,
            "lng": 30.9714843
        },
        {
            "postal_code": 71719,
            "address": "Built Mhamdiat / Abnoub Center",
            "post_office": "Built Mhamdiat",
            "lat": 27.2674027,
            "lng": 31.151928
        },
        {
            "postal_code": 71712,
            "address": "Built over / center opening",
            "post_office": "Built over",
            "lat": 27.1783117,
            "lng": 31.1859257
        },
        {
            "postal_code": 71613,
            "address": "Dashlout / Dirout Center",
            "post_office": "Dashlout",
            "lat": 27.5540789,
            "lng": 30.8084386
        },
        {
            "postal_code": 71643,
            "address": "Dwinh / Abu Tig Center / next to the local unit",
            "post_office": "Dwinh",
            "lat": 27.0422227,
            "lng": 31.3207544
        },
        {
            "postal_code": 71734,
            "address": "Drnkh / conf / inside the unit bundled Center",
            "post_office": "Drnkh",
            "lat": 27.1783117,
            "lng": 31.1859257
        },
        {
            "postal_code": 71728,
            "address": "Hobble Admiral / Badari Center",
            "post_office": "Sensible sea",
            "lat": 26.9916626,
            "lng": 31.4133146
        },
        {
            "postal_code": 71611,
            "address": "Dirout Center",
            "post_office": "Dirout",
            "lat": 27.5540789,
            "lng": 30.8084386
        },
        {
            "postal_code": 71614,
            "address": "Dirout Sharif / Dirout Center",
            "post_office": "Dirout Sharif",
            "lat": 27.5725873,
            "lng": 30.8160135
        },
        {
            "postal_code": 71739,
            "address": "Deir Ganadlh / Ghanayem Center",
            "post_office": "Deir Ganadlh",
            "lat": 26.8734587,
            "lng": 31.3260154
        },
        {
            "postal_code": 71735,
            "address": "Riva / conf center / assembled unit",
            "post_office": "Riva",
            "lat": 27.097628,
            "lng": 31.2070077
        },
        {
            "postal_code": 71723,
            "address": "Sahel Selim Center",
            "post_office": "Salim Coast",
            "lat": 27.0450679,
            "lng": 31.3370074
        },
        {
            "postal_code": 71743,
            "address": "Delisting / conf Center",
            "post_office": "Write off",
            "lat": 27.1783117,
            "lng": 31.1859257
        },
        {
            "postal_code": 71748,
            "address": "Sadfa Center / u station",
            "post_office": "Sadfa",
            "lat": 26.9681893,
            "lng": 31.3802985
        },
        {
            "postal_code": 71619,
            "address": "Faucet Kitchen / Dirout Center",
            "post_office": "Faucet Kitchen",
            "lat": 27.5540789,
            "lng": 30.8084386
        },
        {
            "postal_code": 71512,
            "address": "Caesarea / center conf / Saad Zaghloul St. Endowments Buildings",
            "post_office": "Caesarea Assiut",
            "lat": 27.1763718,
            "lng": 31.1809197
        },
        {
            "postal_code": 71615,
            "address": "Qrchih Dirout / Dirout Center",
            "post_office": "Qrchih Dirout",
            "lat": 27.5540789,
            "lng": 30.8084386
        },
        {
            "postal_code": 71621,
            "address": "Manfalot / Manfalot Center",
            "post_office": "Manfalot",
            "lat": 27.3113959,
            "lng": 30.9714843
        },
        {
            "postal_code": 71636,
            "address": "Mir / Qusiya Center",
            "post_office": "Mir",
            "lat": 27.4393096,
            "lng": 30.8171333
        },
        {
            "postal_code": 71632,
            "address": "Nzaly South / Qusiya Center",
            "post_office": "Nzaly South",
            "lat": 27.4393096,
            "lng": 30.8171333
        },
        {
            "postal_code": 71715,
            "address": "Bani Zaid / Mrkzibnob",
            "post_office": "Bani Zaid Kurds",
            "lat": 27.2019477,
            "lng": 31.1395358
        },
        {
            "postal_code": 71721,
            "address": "Moaabdah / Abnoub Center",
            "post_office": "Moaabdah",
            "lat": 27.2674027,
            "lng": 31.151928
        },
        {
            "postal_code": 71714,
            "address": "Arabs rainy / Open Center",
            "post_office": "Arabs aviary",
            "lat": 27.1783117,
            "lng": 31.1859257
        },
        {
            "postal_code": 71617,
            "address": "Track / Dirout Center",
            "post_office": "Track",
            "lat": 27.5540789,
            "lng": 30.8084386
        },
        {
            "postal_code": 71749,
            "address": "Albarba Sadfa / Sadfa Center / next to the police station",
            "post_office": "Albarba Sadfa",
            "lat": 27.1783117,
            "lng": 31.1859257
        },
        {
            "postal_code": 71652,
            "address": "Rafe Brown / Mrkzmnfelot / u cowardly",
            "post_office": "Built lifter",
            "lat": 27.1783117,
            "lng": 31.1859257
        },
        {
            "postal_code": 71637,
            "address": "Fsazh / Qusiya Center",
            "post_office": "Fazarah Mahmudiya",
            "lat": 27.4393096,
            "lng": 30.8171333
        },
        {
            "postal_code": 71612,
            "address": "Alhuta / Dirout Center",
            "post_office": "Alhuta",
            "lat": 27.5540789,
            "lng": 30.8084386
        },
        {
            "postal_code": 71616,
            "address": "Islam as friendly / Dirout Center",
            "post_office": "Islam as friendly",
            "lat": 27.5540789,
            "lng": 30.8084386
        },
        {
            "postal_code": 71757,
            "address": "Accelerator / conf Center",
            "post_office": "Accelerator",
            "lat": 27.1783117,
            "lng": 31.1859257
        },
        {
            "postal_code": 71711,
            "address": "Alvima / Open Center",
            "post_office": "Alvima",
            "lat": 27.1783117,
            "lng": 31.1859257
        },
        {
            "postal_code": 71623,
            "address": "Built glory / Manfalot Center",
            "post_office": "Built glory",
            "lat": 27.3113959,
            "lng": 30.9714843
        },
        {
            "postal_code": 71642,
            "address": "Abu Tig center / front of the Bank of Egypt",
            "post_office": "Abu Tig sub",
            "lat": 27.0422227,
            "lng": 31.3207544
        },
        {
            "postal_code": 71724,
            "address": "Boit / Coast Center Saleem",
            "post_office": "Boit",
            "lat": 27.1783117,
            "lng": 31.1859257
        },
        {
            "postal_code": 71653,
            "address": "Alttalah / Qusiya / u point center",
            "post_office": "Alttalah",
            "lat": 27.4393096,
            "lng": 30.8171333
        },
        {
            "postal_code": 71718,
            "address": "El-Hammam Assiut / Abnoub Center",
            "post_office": "El-Hammam Assiut",
            "lat": 27.1783117,
            "lng": 31.1859257
        },
        {
            "postal_code": 71762,
            "address": "Nag seven / Assiut / Unity Center St.",
            "post_office": "Nag seven",
            "lat": 27.1783117,
            "lng": 31.1859257
        },
        {
            "postal_code": 71742,
            "address": "Ghanayem Center",
            "post_office": "Ghanayem",
            "lat": 26.8734587,
            "lng": 31.3260154
        },
        {
            "postal_code": 71618,
            "address": "Mandara Admiral / Dirout Center",
            "post_office": "Mandara sea",
            "lat": 27.5540789,
            "lng": 30.8084386
        },
        {
            "postal_code": 71625,
            "address": "Alatamna / Manfalot Center",
            "post_office": "Alatamna Manfalot",
            "lat": 27.3113959,
            "lng": 30.9714843
        },
        {
            "postal_code": 71516,
            "address": "University City / conf Center",
            "post_office": "University City",
            "lat": 27.1783117,
            "lng": 31.1859257
        },
        {
            "postal_code": 71655,
            "address": "Oak / Qusiya Center",
            "post_office": "Oak",
            "lat": 27.4393096,
            "lng": 30.8171333
        },
        {
            "postal_code": 71713,
            "address": "Arabs Alotaulh / center opening",
            "post_office": "Arabs Alotaulh",
            "lat": 27.1783117,
            "lng": 31.1859257
        },
        {
            "postal_code": 71741,
            "address": "Almhayah / center Ghanayem / u hospital",
            "post_office": "Almhayah",
            "lat": 27.1783117,
            "lng": 31.1859257
        },
        {
            "postal_code": 71626,
            "address": "Promenade decision / Manfalot center / field Martyr Fathi",
            "post_office": "Promenade decision",
            "lat": 27.3113959,
            "lng": 30.9714843
        },
        {
            "postal_code": 71731,
            "address": "Hungry Maadi / Badari Center",
            "post_office": "Hungry Maadi",
            "lat": 29.9601561,
            "lng": 31.2569138
        },
        {
            "postal_code": 71726,
            "address": "Aalladerh / Coast Center Saleem",
            "post_office": "Aalladerh",
            "lat": 27.1783117,
            "lng": 31.1859257
        },
        {
            "postal_code": 71752,
            "address": "Azayzeh / Ghanayem Center / u believers",
            "post_office": "Azayzeh",
            "lat": 26.8734587,
            "lng": 31.3260154
        },
        {
            "postal_code": 71758,
            "address": "Gehdm / Manfalot / El Sheikh Ali Center",
            "post_office": "Gehdm",
            "lat": 27.3113959,
            "lng": 30.9714843
        },
        {
            "postal_code": 71759,
            "address": "Aziyah / Manfalot / u / Center Health Unit",
            "post_office": "Aziyah",
            "lat": 27.3113959,
            "lng": 30.9714843
        },
        {
            "postal_code": 71765,
            "address": "Winepress / Open Center",
            "post_office": "Winepress Open Center",
            "lat": 27.1783117,
            "lng": 31.1859257
        },
        {
            "postal_code": 71764,
            "address": "Built Ghalib / conf Center",
            "post_office": "Built Ghalib",
            "lat": 27.1783117,
            "lng": 31.1859257
        },
        {
            "postal_code": 71629,
            "address": "Cliff Sarhan / Dirout Center",
            "post_office": "Cliff Sarhan",
            "lat": 27.1838718,
            "lng": 31.1432228
        },
        {
            "postal_code": 71763,
            "address": "Alwan / conf Center / u post office",
            "post_office": "Alwan",
            "lat": 27.1783117,
            "lng": 31.1859257
        },
        {
            "postal_code": 71638,
            "address": "Republic u / Manfalot Center",
            "post_office": "Manfalot sub",
            "lat": 27.3113959,
            "lng": 30.9714843
        },
        {
            "postal_code": 71519,
            "address": "Faculty of Islamic girls / conf Center",
            "post_office": "Faculty of Islamic girls",
            "lat": 27.1783117,
            "lng": 31.1859257
        },
        {
            "postal_code": 71627,
            "address": "Dirout sub / Dirout Center",
            "post_office": "Dirout sub",
            "lat": 27.5540789,
            "lng": 30.8084386
        },
        {
            "postal_code": 71779,
            "address": "Salim Coast / Coast Center Saleem",
            "post_office": "Salim sub Coast",
            "lat": 27.1783117,
            "lng": 31.1859257
        },
        {
            "postal_code": 71656,
            "address": "Bani Hilal / Qusiya Center",
            "post_office": "Bani Hilal _ Assiut",
            "lat": 27.4546101,
            "lng": 30.7551101
        },
        {
            "postal_code": 71768,
            "address": "Ghanayem Center",
            "post_office": "Ghanayem sub",
            "lat": 26.8734587,
            "lng": 31.3260154
        },
        {
            "postal_code": 71767,
            "address": "Abnoub / u Republic Center",
            "post_office": "Abnoub sub",
            "lat": 27.2674027,
            "lng": 31.151928
        },
        {
            "postal_code": 71772,
            "address": "Catarrh Abdella / Assiut Center",
            "post_office": "Catarrh Abdellah _ociot",
            "lat": 27.1783117,
            "lng": 31.1859257
        },
        {
            "postal_code": 71769,
            "address": "Built support / Manfalot Center / u position",
            "post_office": "Built support",
            "lat": 27.3113959,
            "lng": 30.9714843
        },
        {
            "postal_code": 71771,
            "address": "Majres / Sadfa Center / u year bridge",
            "post_office": "Majres",
            "lat": 26.9780629,
            "lng": 31.3785344
        },
        {
            "postal_code": 71522,
            "address": "Strangely / Coast Center Saleem",
            "post_office": "Strange",
            "lat": 27.1783117,
            "lng": 31.1859257
        },
        {
            "postal_code": 71524,
            "address": "Al-Azhar University / conf Center",
            "post_office": "_ Al Azhar University Assiut",
            "lat": 30.0592755,
            "lng": 31.3130703
        },
        {
            "postal_code": 71773,
            "address": "Kom Isfaht / Sadfa Center",
            "post_office": "Kom Isfaht",
            "lat": 26.9367122,
            "lng": 31.3274032
        },
        {
            "postal_code": 71645,
            "address": "Bblao / Dirout Center",
            "post_office": "Bblao",
            "lat": 27.5540789,
            "lng": 30.8084386
        },
        {
            "postal_code": 71781,
            "address": "Burah gifts / conf Center",
            "post_office": "Burah gifts",
            "lat": 27.1783117,
            "lng": 31.1859257
        },
        {
            "postal_code": 71646,
            "address": "Catarrh Abdellah / Dirout Center",
            "post_office": "Catarrh Abdul Ag Dirout",
            "lat": 27.5540789,
            "lng": 30.8084386
        },
        {
            "postal_code": 71777,
            "address": "Norms / Badari Center",
            "post_office": "Norms",
            "lat": 26.9916626,
            "lng": 31.4133146
        },
        {
            "postal_code": 71774,
            "address": "Alhamaih / Badari Center",
            "post_office": "Alhamaih",
            "lat": 26.9916626,
            "lng": 31.4133146
        },
        {
            "postal_code": 71649,
            "address": "Arabs Jehmah / Qusiya / u Posta Center",
            "post_office": "Arabs Jehmah",
            "lat": 27.4393096,
            "lng": 30.8171333
        },
        {
            "postal_code": 71776,
            "address": "Joyful / conf Center",
            "post_office": "Joyful _ Assiut",
            "lat": 27.1783117,
            "lng": 31.1859257
        },
        {
            "postal_code": 71647,
            "address": "Com Buha / Dirout Center",
            "post_office": "Com Buha",
            "lat": 27.5540789,
            "lng": 30.8084386
        },
        {
            "postal_code": 71783,
            "address": "Mubarak City / conf Center",
            "post_office": "Mubarak City",
            "lat": 27.1672967,
            "lng": 31.1850022
        },
        {
            "postal_code": 71657,
            "address": "Built Haran / Mrkzmnfelot",
            "post_office": "Built Haran",
            "lat": 27.1783117,
            "lng": 31.1859257
        },
        {
            "postal_code": 71782,
            "address": "Oil / conf refining center",
            "post_office": "Petroleum refining",
            "lat": 27.1783117,
            "lng": 31.1859257
        },
        {
            "postal_code": 71785,
            "address": "Open City / Conquest Center / u Supply",
            "post_office": "Open City",
            "lat": 27.1783117,
            "lng": 31.1859257
        },
        {
            "postal_code": 71659,
            "address": "Qusiya El Sheikh Bakhit Center",
            "post_office": "Qusiya sub",
            "lat": 27.4393096,
            "lng": 30.8171333
        },
        {
            "postal_code": 71784,
            "address": "Alnoorh tribal / Badari Center",
            "post_office": "Alnoorh tribal",
            "lat": 26.9916626,
            "lng": 31.4133146
        },
        {
            "postal_code": 71662,
            "address": "Almnashy Dirout / Dirout Center",
            "post_office": "Almnashy Dirout",
            "lat": 27.5540789,
            "lng": 30.8084386
        },
        {
            "postal_code": 71661,
            "address": "Awaja / Dirout Center",
            "post_office": "Awaja",
            "lat": 27.5540789,
            "lng": 30.8084386
        },
        {
            "postal_code": 71663,
            "address": "Manfalot / Manfalot Center",
            "post_office": "Second Manfalot",
            "lat": 27.3113959,
            "lng": 30.9714843
        },
        {
            "postal_code": 71787,
            "address": "Built VIS / Sadfa Center / u bridge",
            "post_office": "Built Phys",
            "lat": 27.1783117,
            "lng": 31.1859257
        },
        {
            "postal_code": 71786,
            "address": "Kerkars / conf Center",
            "post_office": "Kerkars Osaoutih",
            "lat": 27.1358383,
            "lng": 31.2680876
        },
        {
            "postal_code": 71814,
            "address": "The village of Deir Lune before middle school / sound Coast",
            "post_office": "Deir Lune",
            "lat": 27.1783117,
            "lng": 31.1859257
        },
        {
            "postal_code": 71526,
            "address": "Faculty of Pharmacy / conf Center",
            "post_office": "College of Pharmacy",
            "lat": 27.1876773,
            "lng": 31.1654442
        },
        {
            "postal_code": 71664,
            "address": "Abu Tig center / front of the sports club",
            "post_office": "Abu Tig country",
            "lat": 27.0422227,
            "lng": 31.3207544
        },
        {
            "postal_code": 71788,
            "address": "Al Shanaina / Sadfa Center",
            "post_office": "Al Shanaina",
            "lat": 26.9120846,
            "lng": 31.3784628
        },
        {
            "postal_code": 71816,
            "address": "Palace / village center opening",
            "post_office": "Palace Open Center",
            "lat": 27.1783117,
            "lng": 31.1859257
        },
        {
            "postal_code": 71665,
            "address": "Catarrh Mustafa / Dirout Center",
            "post_office": "Catarrh Mustafa",
            "lat": 27.5540789,
            "lng": 30.8084386
        },
        {
            "postal_code": 71797,
            "address": "Sadfa / Abul Abbas El Center",
            "post_office": "Sadfa sub",
            "lat": 26.9681893,
            "lng": 31.3802985
        },
        {
            "postal_code": 71789,
            "address": "Arabs tanneries / conf Center",
            "post_office": "Arabs tanneries",
            "lat": 27.1783117,
            "lng": 31.1859257
        },
        {
            "postal_code": 71791,
            "address": "Peace / conf",
            "post_office": "Peace _ Assiut",
            "lat": 27.1783117,
            "lng": 31.1859257
        },
        {
            "postal_code": 71793,
            "address": "Circular / Manfalot Center",
            "post_office": "Trochanter",
            "lat": 27.3113959,
            "lng": 30.9714843
        },
        {
            "postal_code": 71792,
            "address": "Alonh / Coast Center Saleem",
            "post_office": "Alonh",
            "lat": 27.1783117,
            "lng": 31.1859257
        },
        {
            "postal_code": 71667,
            "address": "Alhbalsh / Qusiya / Hussein El Center",
            "post_office": "Alhbalsh",
            "lat": 27.4393096,
            "lng": 30.8171333
        },
        {
            "postal_code": 71794,
            "address": "Nag Zurayk / Badari Center",
            "post_office": "Nag Zurayk",
            "lat": 26.9916626,
            "lng": 31.4133146
        },
        {
            "postal_code": 71666,
            "address": "Great facility / Qusiya / El Sheikh Center forbidding",
            "post_office": "Great facility",
            "lat": 27.4393096,
            "lng": 30.8171333
        },
        {
            "postal_code": 71811,
            "address": "Dkran / Obotej Center / u schools",
            "post_office": "Dkran",
            "lat": 27.0490594,
            "lng": 31.3174436
        },
        {
            "postal_code": 71521,
            "address": "Assiut pensions / Assiut",
            "post_office": "Assiut pensions",
            "lat": 27.1783117,
            "lng": 31.1859257
        },
        {
            "postal_code": 71813,
            "address": "Village landfill / Coast sound",
            "post_office": "Landfill",
            "lat": 27.1783117,
            "lng": 31.1859257
        },
        {
            "postal_code": 71795,
            "address": "Arabs corkscrews / center opening",
            "post_office": "Arabs corkscrews",
            "lat": 27.1783117,
            "lng": 31.1859257
        },
        {
            "postal_code": 71528,
            "address": "Mubarak Alexandria / conf Center",
            "post_office": "Alexandria Mubarak",
            "lat": 31.2000924,
            "lng": 29.9187387
        },
        {
            "postal_code": 71529,
            "address": "Assiut Center",
            "post_office": "Directorate of Health Affairs",
            "lat": 27.1783117,
            "lng": 31.1859257
        },
        {
            "postal_code": 71669,
            "address": "Althompsahih / Qusiya Center / u Agricultural Society",
            "post_office": "Althompsahih",
            "lat": 27.3959983,
            "lng": 30.8074085
        },
        {
            "postal_code": 71796,
            "address": "Aluaadilh / Sadfa Center",
            "post_office": "Aluaadilh",
            "lat": 27.1783117,
            "lng": 31.1859257
        },
        {
            "postal_code": 71671,
            "address": "Facility plank / u Qusiya point",
            "post_office": "Facility stage",
            "lat": 27.4393096,
            "lng": 30.8171333
        },
        {
            "postal_code": 71798,
            "address": "Shanabla / Abnoub Center",
            "post_office": "Shanabla",
            "lat": 27.2674027,
            "lng": 31.151928
        },
        {
            "postal_code": 71672,
            "address": "Nag Khadr / Dirout / u mayor Center",
            "post_office": "Nag Khadr",
            "lat": 27.5540789,
            "lng": 30.8084386
        },
        {
            "postal_code": 71799,
            "address": "Abu Khrs / Abu Tig Center / u schools",
            "post_office": "Abu Khrs",
            "lat": 27.0422227,
            "lng": 31.3207544
        },
        {
            "postal_code": 71673,
            "address": "Almsaudy / Abu Tig Center",
            "post_office": "Almsaudy",
            "lat": 27.0422227,
            "lng": 31.3207544
        },
        {
            "postal_code": 71812,
            "address": "Sons Mohammed / Ghanayem Center",
            "post_office": "Sons Mohammed Ghanayem",
            "lat": 26.8734587,
            "lng": 31.3260154
        },
        {
            "postal_code": 71815,
            "address": "Ibrahim village built in front of the health unit / Abnoub",
            "post_office": "Lubna Ibrahim",
            "lat": 27.2674027,
            "lng": 31.151928
        },
        {
            "postal_code": 71674,
            "address": "Village Zeera - Abu Tig Center",
            "post_office": "Zeera",
            "lat": 27.0422227,
            "lng": 31.3207544
        },
        {
            "postal_code": 71699,
            "address": "Abnoub Center",
            "post_office": "Marine Attaat",
            "lat": 27.2674027,
            "lng": 31.151928
        },
        {
            "postal_code": 71675,
            "address": "Abu Tig center / village Alacadma",
            "post_office": "Alokadma",
            "lat": 27.0422227,
            "lng": 31.3207544
        },
        {
            "postal_code": 71676,
            "address": "Kom Red / Badari village center",
            "post_office": "Kom Red",
            "lat": 26.9916626,
            "lng": 31.4133146
        },
        {
            "postal_code": 71768,
            "address": "Beni Saleh Alqosia",
            "post_office": "Beni Saleh Alqosia",
            "lat": 27.1783117,
            "lng": 31.1859257
        },
        {
            "postal_code": 71826,
            "address": "Has not yet been opened",
            "post_office": "Ezbet of Copts (under construction)",
            "lat": 27.1783117,
            "lng": 31.1859257
        },
        {
            "postal_code": 71694,
            "address": "Al Qusiya Center - has not been opened to date",
            "post_office": "Desert Mir",
            "lat": 27.4393096,
            "lng": 30.8171333
        },
        {
            "postal_code": 71827,
            "address": "Dirout Center - has not yet been opened",
            "post_office": "Desert Delchot",
            "lat": 27.5540789,
            "lng": 30.8084386
        },
        {
            "postal_code": 71828,
            "address": "Dirout Center",
            "post_office": "Abu Kareem",
            "lat": 27.5540789,
            "lng": 30.8084386
        },
        {
            "postal_code": 71531,
            "address": "Complex Courts Complex - Assiut",
            "post_office": "Assiut Courts Complex",
            "lat": 27.194268,
            "lng": 31.1868811
        },
        {
            "postal_code": 71842,
            "address": "Al Qusiya Center - has not been opened to date",
            "post_office": "Haradina",
            "lat": 27.4393096,
            "lng": 30.8171333
        },
        {
            "postal_code": 71527,
            "address": "In Assiut railway station building",
            "post_office": "Assiut Station",
            "lat": 27.1801198,
            "lng": 31.1883268
        },
        {
            "postal_code": 71521,
            "address": "Saad Zaghloul St. El Mahatta Sq",
            "post_office": "Assiut Provision Area",
            "lat": 27.1783117,
            "lng": 31.1859257
        },
        {
            "postal_code": 71746,
            "address": "Corner / Assiut Center",
            "post_office": "the corner",
            "lat": 27.1783117,
            "lng": 31.1859257
        },
        {
            "postal_code": 71716,
            "address": "Al Tawabiyah / Al Fath Center",
            "post_office": "Al Tawabiyah",
            "lat": 27.2010534,
            "lng": 31.2397438
        }
    ]
}