{
    "damietta": [
        {
            "postal_code": 34325,
            "address": "New Damietta",
            "post_office": "Housing Mubarak Damietta",
            "lat": 31.4175388,
            "lng": 31.81444339999999
        },
        {
            "postal_code": 34511,
            "address": "Corniche / Damietta",
            "post_office": "Damietta main",
            "lat": 31.4175388,
            "lng": 31.81444339999999
        },
        {
            "postal_code": 34512,
            "address": "Aloasr- Dmaat.msakn enlightening / Security Directorate",
            "post_office": "Damietta second",
            "lat": 31.4175388,
            "lng": 31.81444339999999
        },
        {
            "postal_code": 34513,
            "address": "Baraka / Damietta lane",
            "post_office": "Damietta fourth",
            "lat": 31.4072682,
            "lng": 31.8222778
        },
        {
            "postal_code": 34514,
            "address": "El Tahrir Damietta / pleasure Square",
            "post_office": "Compound interest Damietta",
            "lat": 31.41207009999999,
            "lng": 31.8117105
        },
        {
            "postal_code": 34515,
            "address": "Nasiriyah mosque Faraskour Center",
            "post_office": "Nasiriyah Faraskour",
            "lat": 31.4210346,
            "lng": 31.8136315
        },
        {
            "postal_code": 34516,
            "address": "Port m building .Kafr Saad",
            "post_office": "Damietta Port",
            "lat": 31.3540494,
            "lng": 31.6841419
        },
        {
            "postal_code": 34517,
            "address": "Device / New Damietta building",
            "post_office": "New Damietta",
            "lat": 31.43130399999999,
            "lng": 31.685341
        },
        {
            "postal_code": 34518,
            "address": "Second Quarter / New Damietta",
            "post_office": "New Damietta second",
            "lat": 31.43130399999999,
            "lng": 31.685341
        },
        {
            "postal_code": 34519,
            "address": "District II New Damietta Faculty of Commerce",
            "post_office": "Faculty of Commerce Damietta",
            "lat": 31.43130399999999,
            "lng": 31.685341
        },
        {
            "postal_code": 34521,
            "address": "Building 63 houses Damietta Damietta Center",
            "post_office": "Chehabism",
            "lat": 31.4175388,
            "lng": 31.81444339999999
        },
        {
            "postal_code": 34522,
            "address": "Within the local unit / building Damietta",
            "post_office": "Annanah",
            "lat": 31.4175388,
            "lng": 31.81444339999999
        },
        {
            "postal_code": 34524,
            "address": "Damietta Port",
            "post_office": "Services port complex",
            "lat": 31.47082,
            "lng": 31.760589
        },
        {
            "postal_code": 34525,
            "address": "Shata",
            "post_office": "Courts Complex Shata",
            "lat": 31.4121847,
            "lng": 31.8659966
        },
        {
            "postal_code": 34611,
            "address": "Alhimy- Faraskour field",
            "post_office": "Faraskour",
            "lat": 31.1767428,
            "lng": 31.5537844
        },
        {
            "postal_code": 34612,
            "address": "Alrodh- Faraskour Center",
            "post_office": "Kindergarten Faraskour",
            "lat": 31.3232707,
            "lng": 31.7423434
        },
        {
            "postal_code": 34613,
            "address": "M .Faraskour / Alhawwarny",
            "post_office": "Hourani",
            "lat": 31.3232707,
            "lng": 31.7423434
        },
        {
            "postal_code": 34614,
            "address": "Aghannimih- Farschor.alouhdh collected",
            "post_office": "Aghannimih",
            "lat": 31.4175388,
            "lng": 31.81444339999999
        },
        {
            "postal_code": 34623,
            "address": "Kafr Saad / Kafr Suleiman Maritime",
            "post_office": "Kafr Suleiman Maritime",
            "lat": 31.3540494,
            "lng": 31.6841419
        },
        {
            "postal_code": 34624,
            "address": "Alsoualem- Kafr Saad Center",
            "post_office": "Soualem",
            "lat": 31.3540494,
            "lng": 31.6841419
        },
        {
            "postal_code": 34625,
            "address": "Kafr Shehata",
            "post_office": "Kafr Shehata",
            "lat": 31.3104095,
            "lng": 31.6347229
        },
        {
            "postal_code": 34626,
            "address": "Kafr duel - Kafr Saad",
            "post_office": "Kafr duel",
            "lat": 31.3540494,
            "lng": 31.6841419
        },
        {
            "postal_code": 34711,
            "address": "The first region Foreland / u 42 Directorate",
            "post_office": "Ras",
            "lat": 31.4175388,
            "lng": 31.81444339999999
        },
        {
            "postal_code": 34712,
            "address": "Manor tower / Damietta Center",
            "post_office": "Manor tower",
            "lat": 31.4175388,
            "lng": 31.81444339999999
        },
        {
            "postal_code": 34713,
            "address": "Alsinanah- Damietta Center / u public road",
            "post_office": "Lanceolata",
            "lat": 31.4175388,
            "lng": 31.81444339999999
        },
        {
            "postal_code": 34714,
            "address": "Assembled unit m .Kafr Saad",
            "post_office": "Kafr Saad country",
            "lat": 31.3540494,
            "lng": 31.6841419
        },
        {
            "postal_code": 34715,
            "address": "M .Kafr Saadbjawar station",
            "post_office": "Kafr watermelon",
            "lat": 31.11065929999999,
            "lng": 30.9387799
        },
        {
            "postal_code": 34716,
            "address": "M .Kafr Saad / Mit Abu Ghalib",
            "post_office": "Mit Abu Ghalib",
            "lat": 31.2916674,
            "lng": 31.6548046
        },
        {
            "postal_code": 34717,
            "address": "Kafr Saad / Kafr jungle",
            "post_office": "Kafr jungle",
            "lat": 31.3540494,
            "lng": 31.6841419
        },
        {
            "postal_code": 34718,
            "address": "Local Unit Kafr Saad / Kfralostany",
            "post_office": "Disbelief alwastany",
            "lat": 31.3559226,
            "lng": 31.6871662
        },
        {
            "postal_code": 34719,
            "address": "Damietta Center / poets",
            "post_office": "Shatt poets",
            "lat": 31.4175388,
            "lng": 31.81444339999999
        },
        {
            "postal_code": 34721,
            "address": "Unity Mahlah- Faraskour / Qriacherbas",
            "post_office": "Cherbas",
            "lat": 31.3232707,
            "lng": 31.7423434
        },
        {
            "postal_code": 34722,
            "address": "M.alzarka / village Dgahlh",
            "post_office": "Dgahlh",
            "lat": 31.2088356,
            "lng": 31.6357849
        },
        {
            "postal_code": 34725,
            "address": "Assembled unit braid M.dmaat",
            "post_office": "Sewing",
            "lat": 31.4175388,
            "lng": 31.81444339999999
        },
        {
            "postal_code": 34726,
            "address": "Nile m u .Zarqa / Corniche St.",
            "post_office": "Mitt Khouly Abdullah",
            "lat": 31.4175388,
            "lng": 31.81444339999999
        },
        {
            "postal_code": 34727,
            "address": "Faraskour Center / Al Rahamnah",
            "post_office": "Al Rahamnah",
            "lat": 31.2960376,
            "lng": 31.748042
        },
        {
            "postal_code": 34728,
            "address": "Alrkapah- Kafr Saad Center",
            "post_office": "Passenger",
            "lat": 31.3540494,
            "lng": 31.6841419
        },
        {
            "postal_code": 34729,
            "address": ".farschor M / Algwaben",
            "post_office": "Algwaben",
            "lat": 31.4175388,
            "lng": 31.81444339999999
        },
        {
            "postal_code": 34731,
            "address": "Kafr Almiasrh m .Zarqa",
            "post_office": "Kafr Almiasrh",
            "lat": 31.1850795,
            "lng": 31.5963735
        },
        {
            "postal_code": 34734,
            "address": "El Harby .Damietta Center",
            "post_office": "Manor meat",
            "lat": 31.43788839999999,
            "lng": 31.8055073
        },
        {
            "postal_code": 34735,
            "address": "Alex Aljdidhm .Faraskour",
            "post_office": "New Alexandria",
            "lat": 31.3232707,
            "lng": 31.7423434
        },
        {
            "postal_code": 34736,
            "address": "Barashih- Faraskour Center",
            "post_office": "Alpracip",
            "lat": 31.3232707,
            "lng": 31.7423434
        },
        {
            "postal_code": 34737,
            "address": "47 El Ras El Bar City Council",
            "post_office": "Mainland sub head",
            "lat": 31.5180423,
            "lng": 31.8390981
        },
        {
            "postal_code": 34738,
            "address": "Kafr el -Arab / Faraskour",
            "post_office": "Kafr Arab_ Faraskour",
            "lat": 31.3232707,
            "lng": 31.7423434
        },
        {
            "postal_code": 34739,
            "address": "Forty / Faraskour Center",
            "post_office": "Alaarbaan Faraskour",
            "lat": 31.3232707,
            "lng": 31.7423434
        },
        {
            "postal_code": 34741,
            "address": "Sheikh lion / Dmaat.triv manor tower",
            "post_office": "Sheikh Dargham",
            "lat": 31.4175388,
            "lng": 31.81444339999999
        },
        {
            "postal_code": 34742,
            "address": "Albesarth village / Damietta Center",
            "post_office": "Albesarth",
            "lat": 31.3842874,
            "lng": 31.8022244
        },
        {
            "postal_code": 34743,
            "address": "Adlip / Damietta village",
            "post_office": "Adlip",
            "lat": 31.4175388,
            "lng": 31.81444339999999
        }
    ]
}