{
    "ismailia": [
        {
            "postal_code": 41511,
            "address": "U Freedom / Orabi Square / Ismailia",
            "post_office": "Ismailia",
            "lat": 30.5964923,
            "lng": 32.2714587
        },
        {
            "postal_code": 41512,
            "address": "U Army / wholesale market / Ismailia",
            "post_office": "Ismailia _ subsidiary",
            "lat": 30.5964923,
            "lng": 32.2714587
        },
        {
            "postal_code": 41622,
            "address": "By treaty - Abu Sawyer",
            "post_office": "Abu Sawyer",
            "lat": 30.5964923,
            "lng": 32.2714587
        },
        {
            "postal_code": 41617,
            "address": "Abu Sultan / Sarabium / Main Street / Fayed Center",
            "post_office": "Abu Sultan",
            "lat": 30.4755789,
            "lng": 32.3162723
        },
        {
            "postal_code": 41626,
            "address": "Big Hill / Ahmed Orabi St.",
            "post_office": "Big Hill",
            "lat": 30.5964923,
            "lng": 32.2714587
        },
        {
            "postal_code": 41624,
            "address": "Storytellers / economic housing / Building 7 / Big Hill",
            "post_office": "Storytellers",
            "lat": 30.5964923,
            "lng": 32.2714587
        },
        {
            "postal_code": 41611,
            "address": "Mrkzalqntrh West / economic housing",
            "post_office": "West Qantara",
            "lat": 30.5964923,
            "lng": 32.2714587
        },
        {
            "postal_code": 41628,
            "address": "Inside the camp / Big Hill / camp attributed honor",
            "post_office": "Izzat honor camp",
            "lat": 30.5964923,
            "lng": 32.2714587
        },
        {
            "postal_code": 41616,
            "address": "Typical / Sarabium / village center Fayed",
            "post_office": "Sarabium",
            "lat": 30.4755789,
            "lng": 32.3162723
        },
        {
            "postal_code": 41517,
            "address": "Menofia / Areich Egypt / u second section of Ismailia",
            "post_office": "Areich Egypt",
            "lat": 30.5972455,
            "lng": 30.9876321
        },
        {
            "postal_code": 41618,
            "address": "Fayed / u City Council",
            "post_office": "Fayed",
            "lat": 30.3261157,
            "lng": 32.2986344
        },
        {
            "postal_code": 41619,
            "address": "Fayed summit / inside the station / Fayed",
            "post_office": "Fayed summit",
            "lat": 30.3261157,
            "lng": 32.2986344
        },
        {
            "postal_code": 41513,
            "address": "Camp evacuation / Ismailia",
            "post_office": "Evacuation camp",
            "lat": 30.5964923,
            "lng": 32.2714587
        },
        {
            "postal_code": 41519,
            "address": "Manshyet martyrs / second section of Ismailia / replacement housing",
            "post_office": "Manshyet martyrs",
            "lat": 30.5964923,
            "lng": 32.2714587
        },
        {
            "postal_code": 41613,
            "address": "Nvich / railway / Ismaili Center station",
            "post_office": "Nvich",
            "lat": 30.5830934,
            "lng": 32.2653887
        },
        {
            "postal_code": 41621,
            "address": "Fanara / El Shaheed Farid Nada / Fayed",
            "post_office": "Fanara",
            "lat": 30.5939077,
            "lng": 32.2736697
        },
        {
            "postal_code": 41615,
            "address": "Eye twig / Sarabium / Ismailia",
            "post_office": "Eye twig",
            "lat": 30.4755789,
            "lng": 32.3162723
        },
        {
            "postal_code": 41516,
            "address": "Sheikh Zayed / Phase II",
            "post_office": "Sheikh Zayed",
            "lat": 30.6135965,
            "lng": 32.2835841
        },
        {
            "postal_code": 41623,
            "address": "Mahsma / Abossoir / Ismailia",
            "post_office": "Mahsma",
            "lat": 30.5964923,
            "lng": 32.2714587
        },
        {
            "postal_code": 41518,
            "address": "El Mansoura and Maritime / second section of Ismailia",
            "post_office": "Egypt second Areich",
            "lat": 31.0409483,
            "lng": 31.3784704
        },
        {
            "postal_code": 41612,
            "address": "Abu Khalifa / Mrkzalqntrh",
            "post_office": "Abu Khalifa",
            "lat": 30.7575446,
            "lng": 32.247928
        },
        {
            "postal_code": 41614,
            "address": "Dabayaa / Sarabium / Building No. 2 / Ismailia",
            "post_office": "Dabayaa Ismailia",
            "lat": 30.4755789,
            "lng": 32.3162723
        },
        {
            "postal_code": 41521,
            "address": "Abuatoh / Bjawaralmtafye / Ismailia",
            "post_office": "Abu Atwa",
            "lat": 30.5964923,
            "lng": 32.2714587
        },
        {
            "postal_code": 41627,
            "address": "Valley angel / Big Hill Center",
            "post_office": "Valley angel",
            "lat": 30.5964923,
            "lng": 32.2714587
        },
        {
            "postal_code": 41522,
            "address": "The old university building / Ismailia / Suez Canal University",
            "post_office": "Suez Canal University",
            "lat": 30.620533,
            "lng": 32.269729
        },
        {
            "postal_code": 41523,
            "address": "Hospital / District Peace / Ismailia St.",
            "post_office": "Salam District _ Ismailia",
            "lat": 30.5964923,
            "lng": 32.2714587
        },
        {
            "postal_code": 41524,
            "address": "Wind / West Qantara",
            "post_office": "Wind",
            "lat": 30.848945,
            "lng": 32.312454
        },
        {
            "postal_code": 41528,
            "address": "U ownership / next Montazah / Ismailia",
            "post_office": "Sheikh ownership Zuid",
            "lat": 30.5947487,
            "lng": 32.2708196
        },
        {
            "postal_code": 41525,
            "address": "Within the courts / Ismailia complex",
            "post_office": "Courts Complex Ismailia",
            "lat": 30.5964923,
            "lng": 32.2714587
        },
        {
            "postal_code": 41527,
            "address": "Industrial Area / Services Committee / Ismaili Center",
            "post_office": "Industrial zone Ismailia",
            "lat": 30.5830934,
            "lng": 32.2653887
        },
        {
            "postal_code": 41526,
            "address": "Within the Ismaili / Ismailia Security Directorate building",
            "post_office": "Ismailia Security Directorate",
            "lat": 30.5964923,
            "lng": 32.2714587
        },
        {
            "postal_code": 41634,
            "address": "Large hill / ( fedayeen u)",
            "post_office": "Big hill country",
            "lat": 30.5964923,
            "lng": 32.2714587
        },
        {
            "postal_code": 41529,
            "address": "Phase V / Building 33 / Ismailia / cooperative ownership",
            "post_office": "Cooperative ownership",
            "lat": 30.5964923,
            "lng": 32.2714587
        },
        {
            "postal_code": 41632,
            "address": "St. Assiut / Department of Qantara East",
            "post_office": "East Qantara",
            "lat": 27.1783117,
            "lng": 31.1859257
        },
        {
            "postal_code": 41636,
            "address": "The new bridge section east",
            "post_office": "New Qantara East",
            "lat": 30.5964923,
            "lng": 32.2714587
        },
        {
            "postal_code": 41635,
            "address": "Village Heroes / Sarabium",
            "post_office": "Village Heroes",
            "lat": 30.4755789,
            "lng": 32.3162723
        },
        {
            "postal_code": 41531,
            "address": "Transit / Ismailia District",
            "post_office": "Transit Ismailia",
            "lat": 30.6065972,
            "lng": 32.258161
        },
        {
            "postal_code": 41647,
            "address": "Seven village wells Western / Ismailia",
            "post_office": "Seven Western wells",
            "lat": 30.5964923,
            "lng": 32.2714587
        },
        {
            "postal_code": 41637,
            "address": "Commando / Abossoir",
            "post_office": "Commando",
            "lat": 30.5964923,
            "lng": 32.2714587
        },
        {
            "postal_code": 41638,
            "address": "Manshyet Orabi / Big Hill Center",
            "post_office": "Manshyet Orabi",
            "lat": 30.5964923,
            "lng": 32.2714587
        },
        {
            "postal_code": 41639,
            "address": "Abu Sawyer / suburban / Future Center",
            "post_office": "City of the Future",
            "lat": 30.5964923,
            "lng": 32.2714587
        },
        {
            "postal_code": 41641,
            "address": "City / Abu Sawyer sub",
            "post_office": "Abu Sawyer s new",
            "lat": 30.5964923,
            "lng": 32.2714587
        },
        {
            "postal_code": 41642,
            "address": "City storytellers",
            "post_office": "New storytellers",
            "lat": 30.5964923,
            "lng": 32.2714587
        },
        {
            "postal_code": 41643,
            "address": "Abu Ashour village",
            "post_office": "Abu Ashour",
            "lat": 30.5964923,
            "lng": 32.2714587
        },
        {
            "postal_code": 41644,
            "address": "Fayed to peace station",
            "post_office": "Fayed sub",
            "lat": 30.5964923,
            "lng": 32.2714587
        },
        {
            "postal_code": 41645,
            "address": "Big Hill Center - storytellers",
            "post_office": "Suedat",
            "lat": 30.5964923,
            "lng": 32.2714587
        },
        {
            "postal_code": 41648,
            "address": "Kantara West - Behind the agricultural administration",
            "post_office": "Kantara West sub",
            "lat": 30.8566696,
            "lng": 32.3191456
        },
        {
            "postal_code": 41661,
            "address": "Gelbana village next to Stnral",
            "post_office": "Gelbana",
            "lat": 30.5964923,
            "lng": 32.2714587
        }
    ]
}