{
    "new_valley": [
        {
            "postal_code": 72711,
            "address": "Whole field Bmut / Dakhla Center",
            "post_office": "Mott",
            "lat": 25.5191781,
            "lng": 29.1262237
        },
        {
            "postal_code": 72713,
            "address": "Bulaq village / emerging center",
            "post_office": "Bulaq New Valley",
            "lat": 30.0631325,
            "lng": 31.2311579
        },
        {
            "postal_code": 72714,
            "address": "Village tile / Dakhla Center",
            "post_office": "Court",
            "lat": 25.5191781,
            "lng": 29.1262237
        },
        {
            "postal_code": 72715,
            "address": "New Village / Dakhla Center",
            "post_office": "New inflows Center",
            "lat": 25.5191781,
            "lng": 29.1262237
        },
        {
            "postal_code": 72716,
            "address": "Palace / entering the center of the village",
            "post_office": "Palace Dakhla Center",
            "lat": 24.5455638,
            "lng": 27.1735316
        },
        {
            "postal_code": 72717,
            "address": "Adult village / Dakhla Center",
            "post_office": "Adult",
            "lat": 25.5191781,
            "lng": 29.1262237
        },
        {
            "postal_code": 72718,
            "address": "Village winepress / Dakhla",
            "post_office": "Winepress Dakhla",
            "lat": 25.5191781,
            "lng": 29.1262237
        },
        {
            "postal_code": 72719,
            "address": "Village Kalamoon / Dakhla Center",
            "post_office": "Kalamoon",
            "lat": 25.5191781,
            "lng": 29.1262237
        },
        {
            "postal_code": 72722,
            "address": "Village enlightening / emerging center",
            "post_office": "Enlightening",
            "lat": 24.5455638,
            "lng": 27.1735316
        },
        {
            "postal_code": 72721,
            "address": "Farafra Center",
            "post_office": "Farafra",
            "lat": 27.0567362,
            "lng": 27.9702964
        },
        {
            "postal_code": 72724,
            "address": "Village West talented / Dakhla Center",
            "post_office": "West talented",
            "lat": 25.5191781,
            "lng": 29.1262237
        },
        {
            "postal_code": 72723,
            "address": "Village Alhendao / Dakhla Center",
            "post_office": "Alhendao",
            "lat": 25.5191781,
            "lng": 29.1262237
        },
        {
            "postal_code": 72725,
            "address": "Revolution Village / emerging center",
            "post_office": "Nasser Revolution",
            "lat": 24.5455638,
            "lng": 27.1735316
        },
        {
            "postal_code": 72726,
            "address": "Authorities Complex building Bmut / El Sheikh El Shaarawy",
            "post_office": "Mott sub",
            "lat": 24.5455638,
            "lng": 27.1735316
        },
        {
            "postal_code": 72727,
            "address": "Village Tnadh / Dakhla Center",
            "post_office": "Tnadh",
            "lat": 25.5191781,
            "lng": 29.1262237
        },
        {
            "postal_code": 72728,
            "address": "Almosah / entering the center of the village",
            "post_office": "Almosah",
            "lat": 24.5455638,
            "lng": 27.1735316
        },
        {
            "postal_code": 72729,
            "address": "Azab village palace / Dakhla Center",
            "post_office": "Azab palace",
            "lat": 25.5191781,
            "lng": 29.1262237
        },
        {
            "postal_code": 72732,
            "address": "Virtuoso village / Dakhla Center",
            "post_office": "Virtuoso",
            "lat": 25.5191781,
            "lng": 29.1262237
        },
        {
            "postal_code": 72731,
            "address": "Sheikh village and to / incoming center",
            "post_office": "Sheikh and to",
            "lat": 24.5455638,
            "lng": 27.1735316
        },
        {
            "postal_code": 72733,
            "address": "Aounist village / Dakhla Center",
            "post_office": "Aounist",
            "lat": 25.5191781,
            "lng": 29.1262237
        },
        {
            "postal_code": 72734,
            "address": "Village Bdkhalo / Dakhla Center",
            "post_office": "Bdkhalo",
            "lat": 25.5191781,
            "lng": 29.1262237
        },
        {
            "postal_code": 72735,
            "address": "Cement / entering the center of the village",
            "post_office": "Cement",
            "lat": 24.5455638,
            "lng": 27.1735316
        },
        {
            "postal_code": 72513,
            "address": "City Council building Baforeigp behind relics emerging Museum",
            "post_office": "Hibs",
            "lat": 24.5455638,
            "lng": 27.1735316
        },
        {
            "postal_code": 72736,
            "address": "Arif village / emerging center",
            "post_office": "Shahid Arif",
            "lat": 24.5455638,
            "lng": 27.1735316
        },
        {
            "postal_code": 72737,
            "address": "Abu weakling / emerging center project",
            "post_office": "Abu weakling",
            "lat": 24.5455638,
            "lng": 27.1735316
        },
        {
            "postal_code": 72739,
            "address": "Village boys Abdullah / Dakhla Center",
            "post_office": "Boys Abdullah",
            "lat": 25.5191781,
            "lng": 29.1262237
        },
        {
            "postal_code": 72742,
            "address": "Port Village / emerging center",
            "post_office": "Port Said",
            "lat": 24.5455638,
            "lng": 27.1735316
        },
        {
            "postal_code": 72743,
            "address": "The village of Abu beak / Farafra Center",
            "post_office": "Abu beak",
            "lat": 27.0567362,
            "lng": 27.9702964
        },
        {
            "postal_code": 72744,
            "address": "Village struggle / Farafra Center",
            "post_office": "Struggle",
            "lat": 27.0567362,
            "lng": 27.9702964
        },
        {
            "postal_code": 72745,
            "address": "Major General Sabih village / Farafra Center",
            "post_office": "Major General Sabih",
            "lat": 27.0567362,
            "lng": 27.9702964
        },
        {
            "postal_code": 72746,
            "address": "Future village / outflows",
            "post_office": "Future outflows",
            "lat": 24.5455638,
            "lng": 27.1735316
        },
        {
            "postal_code": 72747,
            "address": "The village of Abu Huraira / Farafra Center",
            "post_office": "Abu Huraira",
            "lat": 27.0567362,
            "lng": 27.9702964
        },
        {
            "postal_code": 72748,
            "address": "Village Zacharh / Dakhla",
            "post_office": "Zacharh Valley",
            "lat": 25.5191781,
            "lng": 29.1262237
        },
        {
            "postal_code": 72751,
            "address": "Max tribal village / emerging center",
            "post_office": "Max tribal",
            "lat": 24.5455638,
            "lng": 27.1735316
        },
        {
            "postal_code": 72749,
            "address": "Alepeshndy village / Dakhla Center",
            "post_office": "Alepeshndy",
            "lat": 25.5191781,
            "lng": 29.1262237
        },
        {
            "postal_code": 72753,
            "address": "Renaissance Village / Dakhla Center",
            "post_office": "Renaissance Valley",
            "lat": 25.5191781,
            "lng": 29.1262237
        },
        {
            "postal_code": 72752,
            "address": "The village of Ein live / Dakhla Center",
            "post_office": "Eye live",
            "lat": 25.5191781,
            "lng": 29.1262237
        },
        {
            "postal_code": 72514,
            "address": "Flower District Baforeigp / outflows",
            "post_office": "Flower Valley",
            "lat": 24.5455638,
            "lng": 27.1735316
        },
        {
            "postal_code": 72515,
            "address": "Marwa District Baforeigp / outflows",
            "post_office": "Marwa emerging",
            "lat": 24.5455638,
            "lng": 27.1735316
        },
        {
            "postal_code": 72754,
            "address": "Village between Ganayen / Dakhla Center",
            "post_office": "Between Ganayen",
            "lat": 25.5191781,
            "lng": 29.1262237
        },
        {
            "postal_code": 72756,
            "address": "Palestine Valley / outflows",
            "post_office": "Palestine Valley",
            "lat": 24.5455638,
            "lng": 27.1735316
        },
        {
            "postal_code": 72755,
            "address": "Village Algeria / outflows",
            "post_office": "Aldza\u00c3\u00barallowady",
            "lat": 24.5455638,
            "lng": 27.1735316
        },
        {
            "postal_code": 72516,
            "address": "The land of peace the city and beyond",
            "post_office": "Peace the city and beyond",
            "lat": 24.5455638,
            "lng": 27.1735316
        },
        {
            "postal_code": 72757,
            "address": "Entering the village of Sheikh key",
            "post_office": "Sheikh key",
            "lat": 24.5455638,
            "lng": 27.1735316
        }
    ]
}