{
    "qena": [
        {
            "postal_code": 83729,
            "address": "Behind the station / Abu Center Tesht",
            "post_office": "Abu Shusha",
            "lat": 26.120136,
            "lng": 32.0939075
        },
        {
            "postal_code": 83661,
            "address": "Abu Tesht / Abu Center Tesht",
            "post_office": "Abu Tesht main",
            "lat": 26.120136,
            "lng": 32.0939075
        },
        {
            "postal_code": 83615,
            "address": "Abu Manna Admiral / Dishna Center",
            "post_office": "Abu Manna nautical",
            "lat": 26.1254735,
            "lng": 32.4717074
        },
        {
            "postal_code": 83727,
            "address": "Abnoud / next to the combined unit / Qena Center",
            "post_office": "Abnoud",
            "lat": 26.155061,
            "lng": 32.7160121
        },
        {
            "postal_code": 83728,
            "address": "Supervision / Qena Center",
            "post_office": "Supervising",
            "lat": 26.155061,
            "lng": 32.7160121
        },
        {
            "postal_code": 83526,
            "address": "Beekeeper / QNA / District in front of the sewage plant",
            "post_office": "Beekeeper",
            "lat": 26.155061,
            "lng": 32.7160121
        },
        {
            "postal_code": 83714,
            "address": "Probation / Qena Center",
            "post_office": "Unguarded Qena",
            "lat": 26.155061,
            "lng": 32.7160121
        },
        {
            "postal_code": 83644,
            "address": "Home / Nag Hammadi Center",
            "post_office": "Home",
            "lat": 26.0451551,
            "lng": 32.2427609
        },
        {
            "postal_code": 83721,
            "address": "Rahmaniyah tribal / Nag Hammadi center country",
            "post_office": "Rahmaniyah tribal country b",
            "lat": 26.0451551,
            "lng": 32.2427609
        },
        {
            "postal_code": 83617,
            "address": "Asamta / Dishna Center",
            "post_office": "Asamta",
            "lat": 26.1254735,
            "lng": 32.4717074
        },
        {
            "postal_code": 83645,
            "address": "Halfaya Admiral / Nag Hammadi Center",
            "post_office": "Halfaya nautical",
            "lat": 26.0451551,
            "lng": 32.2427609
        },
        {
            "postal_code": 83698,
            "address": "LV / Arabs Center Nagagerh",
            "post_office": "Manor Nagagerh",
            "lat": 26.155061,
            "lng": 32.7160121
        },
        {
            "postal_code": 83782,
            "address": "El-Usayrat / Farshout",
            "post_office": "El Usayrat",
            "lat": 26.3936731,
            "lng": 31.821766
        },
        {
            "postal_code": 83715,
            "address": "Amr boys / Qena Center",
            "post_office": "Children Amr",
            "lat": 26.155061,
            "lng": 32.7160121
        },
        {
            "postal_code": 83712,
            "address": "Dandara / Qena Center",
            "post_office": "Dandara",
            "lat": 26.1570714,
            "lng": 32.7180291
        },
        {
            "postal_code": 83651,
            "address": "Behind the railway / Farshout",
            "post_office": "Farshout",
            "lat": 26.0556406,
            "lng": 32.1675132
        },
        {
            "postal_code": 83717,
            "address": "FAO / Dishna Center",
            "post_office": "FAW",
            "lat": 26.1254735,
            "lng": 32.4717074
        },
        {
            "postal_code": 83724,
            "address": "Qeft Center / u Army",
            "post_office": "The main Qeft",
            "lat": 26.0001889,
            "lng": 32.8157208
        },
        {
            "postal_code": 83621,
            "address": "Station / Qous Center Street",
            "post_office": "The main Qous",
            "lat": 26.2346033,
            "lng": 32.98883190000001
        },
        {
            "postal_code": 83512,
            "address": "Qena next to a military hospital / Luxor",
            "post_office": "Qena sub",
            "lat": 26.155061,
            "lng": 32.7160121
        },
        {
            "postal_code": 83641,
            "address": "Nag Hammadi",
            "post_office": "Nag Hammadi",
            "lat": 26.0451551,
            "lng": 32.2427609
        },
        {
            "postal_code": 83628,
            "address": "Market / Nakada Center Street",
            "post_office": "Nakada",
            "lat": 25.9005178,
            "lng": 32.7227029
        },
        {
            "postal_code": 83719,
            "address": "LV / Port Said St. Center",
            "post_office": "Endowment",
            "lat": 26.1548305,
            "lng": 32.7188382
        },
        {
            "postal_code": 83627,
            "address": "Khattara / Nakada Center",
            "post_office": "Khattara",
            "lat": 25.9005178,
            "lng": 32.7227029
        },
        {
            "postal_code": 83811,
            "address": "Nag Hammadi",
            "post_office": "Alhvenawih",
            "lat": 26.0451551,
            "lng": 32.2427609
        },
        {
            "postal_code": 83624,
            "address": "CFP / Qous / within the local unit",
            "post_office": "CFP",
            "lat": 26.1920826,
            "lng": 32.7452739
        },
        {
            "postal_code": 83663,
            "address": "Sulaimat / Abu Center Tesht",
            "post_office": "Sulaimat",
            "lat": 26.155061,
            "lng": 32.7160121
        },
        {
            "postal_code": 83647,
            "address": "He / Nag Hammadi Center",
            "post_office": "He",
            "lat": 26.0451551,
            "lng": 32.2427609
        },
        {
            "postal_code": 83726,
            "address": "Brahmins / Qeft",
            "post_office": "Brahmins",
            "lat": 26.0001889,
            "lng": 32.8157208
        },
        {
            "postal_code": 83779,
            "address": "Salehia village / Qous Center",
            "post_office": "Salehia",
            "lat": 26.2346033,
            "lng": 32.98883190000001
        },
        {
            "postal_code": 83794,
            "address": "Boys star / Mrkzenja Hammadi",
            "post_office": "Boys star",
            "lat": 26.0451551,
            "lng": 32.2427609
        },
        {
            "postal_code": 83652,
            "address": "Aerki / Farshout Center",
            "post_office": "Aerki",
            "lat": 26.0556406,
            "lng": 32.1675132
        },
        {
            "postal_code": 83711,
            "address": "Abudiab West / Dishna Center",
            "post_office": "Abudiab West",
            "lat": 26.1254735,
            "lng": 32.4717074
        },
        {
            "postal_code": 83713,
            "address": "Gnawi / Qena Center",
            "post_office": "Gnawi",
            "lat": 26.155061,
            "lng": 32.7160121
        },
        {
            "postal_code": 83787,
            "address": "Village Hnhor / Qous Center / Qena",
            "post_office": "Hnhor",
            "lat": 26.155061,
            "lng": 32.7160121
        },
        {
            "postal_code": 83515,
            "address": "Street nautical country / city of Qena",
            "post_office": "Sidi Abdel Rahim",
            "lat": 26.155061,
            "lng": 32.7160121
        },
        {
            "postal_code": 83625,
            "address": "Tookh tribal / Mrkzanagadh",
            "post_office": "Tookh tribal",
            "lat": 26.155061,
            "lng": 32.7160121
        },
        {
            "postal_code": 83631,
            "address": "Dnqik / Nakada Center",
            "post_office": "Dunfik",
            "lat": 25.9005178,
            "lng": 32.7227029
        },
        {
            "postal_code": 83725,
            "address": "Shaykhiyyah / Qeft",
            "post_office": "Shaykhiyyah",
            "lat": 26.0001889,
            "lng": 32.8157208
        },
        {
            "postal_code": 83662,
            "address": "Boukhans / Abu Center Tesht",
            "post_office": "Boukhans",
            "lat": 26.120136,
            "lng": 32.0939075
        },
        {
            "postal_code": 83654,
            "address": "Com Beja / Farshout Center",
            "post_office": "Com Beja",
            "lat": 26.0556406,
            "lng": 32.1675132
        },
        {
            "postal_code": 83514,
            "address": "Ship u / Qena Center",
            "post_office": "City workers Qena",
            "lat": 26.155061,
            "lng": 32.7160121
        },
        {
            "postal_code": 83722,
            "address": "Shukaifi / Abu Center Tesht",
            "post_office": "Shukaifi",
            "lat": 26.120136,
            "lng": 32.0939075
        },
        {
            "postal_code": 83664,
            "address": "Dishna / Abu Manna West Center",
            "post_office": "Abu Manna West",
            "lat": 26.1254735,
            "lng": 32.4717074
        },
        {
            "postal_code": 83775,
            "address": "U Health Unit / Smhod / Abu Tesht",
            "post_office": "The country s money nautical",
            "lat": 26.120136,
            "lng": 32.0939075
        },
        {
            "postal_code": 83776,
            "address": "Bear ward / Qeft",
            "post_office": "Abu generosity Bear dormitory",
            "lat": 26.0001889,
            "lng": 32.8157208
        },
        {
            "postal_code": 83777,
            "address": "Marashda / Endowment Center",
            "post_office": "Marashda",
            "lat": 26.0971898,
            "lng": 32.4778893
        },
        {
            "postal_code": 83626,
            "address": "Sha'rani / Qous Center",
            "post_office": "Sha rani",
            "lat": 26.2346033,
            "lng": 32.98883190000001
        },
        {
            "postal_code": 83513,
            "address": "Spinning Street Qena / Qena City",
            "post_office": "Spinning Qena",
            "lat": 26.155061,
            "lng": 32.7160121
        },
        {
            "postal_code": 83622,
            "address": "Jrajos / Qous Center",
            "post_office": "Jrajos",
            "lat": 26.2346033,
            "lng": 32.98883190000001
        },
        {
            "postal_code": 83616,
            "address": "Sheikh on the east / Dishna Center",
            "post_office": "Sheikh Ali al East",
            "lat": 26.1254735,
            "lng": 32.4717074
        },
        {
            "postal_code": 83716,
            "address": "Compartments / Qena Center",
            "post_office": "Compartments",
            "lat": 26.155061,
            "lng": 32.7160121
        },
        {
            "postal_code": 83614,
            "address": "Attaat / Dishna Center",
            "post_office": "Attaat",
            "lat": 26.1254735,
            "lng": 32.4717074
        },
        {
            "postal_code": 83699,
            "address": "Nagahah / Nag Hammadi village center",
            "post_office": "Nagahah",
            "lat": 26.0423303,
            "lng": 32.2867152
        },
        {
            "postal_code": 83646,
            "address": "Aalghemana / Nag Hammadi Center",
            "post_office": "Aalghemana",
            "lat": 26.0451551,
            "lng": 32.2427609
        },
        {
            "postal_code": 83643,
            "address": "Children Tribal Star / Nag Hammadi",
            "post_office": "Star tribal children",
            "lat": 26.0451551,
            "lng": 32.2427609
        },
        {
            "postal_code": 83612,
            "address": "Upper Egyptians / Dishna Center St.",
            "post_office": "Dishna sub",
            "lat": 26.1254735,
            "lng": 32.4717074
        },
        {
            "postal_code": 83642,
            "address": "Aluminum Complex / Nag Hammadi",
            "post_office": "Aluminum Complex",
            "lat": 26.0451551,
            "lng": 32.2427609
        },
        {
            "postal_code": 83618,
            "address": "Kulmina / Endowment Center",
            "post_office": "Kulmina",
            "lat": 26.155061,
            "lng": 32.7160121
        },
        {
            "postal_code": 83812,
            "address": "Sheikh Issa village",
            "post_office": "Sheikh Issa",
            "lat": 26.155061,
            "lng": 32.7160121
        },
        {
            "postal_code": 83733,
            "address": "Radiance tribal Qena Center",
            "post_office": "Supervising Aalqublah",
            "lat": 26.155061,
            "lng": 32.7160121
        },
        {
            "postal_code": 83752,
            "address": "Aljblao / Qena Center",
            "post_office": "Aljblao",
            "lat": 26.155061,
            "lng": 32.7160121
        },
        {
            "postal_code": 83778,
            "address": "U . Market / continent / Abu washtub",
            "post_office": "Abu continent washtub",
            "lat": 26.155061,
            "lng": 32.7160121
        },
        {
            "postal_code": 83732,
            "address": "Amr boys / Qena Center",
            "post_office": "Amr country boys",
            "lat": 26.155061,
            "lng": 32.7160121
        },
        {
            "postal_code": 83736,
            "address": "Specific / Qeft Nag",
            "post_office": "Certain Nag",
            "lat": 26.0001889,
            "lng": 32.8157208
        },
        {
            "postal_code": 83657,
            "address": "U Coast / Nag Hammadi Center",
            "post_office": "Nag Hammadi Coast",
            "lat": 26.0451551,
            "lng": 32.2427609
        },
        {
            "postal_code": 83783,
            "address": "Reds and Aldjaafarh",
            "post_office": "Reds and Aldjaafarh",
            "lat": 26.155061,
            "lng": 32.7160121
        },
        {
            "postal_code": 83634,
            "address": "Alhijazh Admiral / Qous Center",
            "post_office": "Hijazh sea",
            "lat": 26.2346033,
            "lng": 32.98883190000001
        },
        {
            "postal_code": 83786,
            "address": "Village salaries / Abu Center Tesht / Qena",
            "post_office": "Salaries",
            "lat": 26.120136,
            "lng": 32.0939075
        },
        {
            "postal_code": 83665,
            "address": "Alkaaemat / Abu washtub Center",
            "post_office": "Alkaaemat",
            "lat": 26.155061,
            "lng": 32.7160121
        },
        {
            "postal_code": 83666,
            "address": "Short Boukhans / Abu Center Tesht",
            "post_office": "Short Boukhans",
            "lat": 26.120136,
            "lng": 32.0939075
        },
        {
            "postal_code": 83741,
            "address": "Qena Center",
            "post_office": "Almkhadma",
            "lat": 26.155061,
            "lng": 32.7160121
        },
        {
            "postal_code": 83743,
            "address": "Rahmaniyah tribal / Nag Hammadi center country",
            "post_office": "Rahmaniyah tribal country",
            "lat": 26.0451551,
            "lng": 32.2427609
        },
        {
            "postal_code": 83737,
            "address": "Alaliqat / Qous Center",
            "post_office": "Alaliqat",
            "lat": 26.2346033,
            "lng": 32.98883190000001
        },
        {
            "postal_code": 83785,
            "address": "Village reconciliation / Nag Hammadi Center",
            "post_office": "Reconciliation",
            "lat": 26.0451551,
            "lng": 32.2427609
        },
        {
            "postal_code": 83632,
            "address": "His sons Zia / Nakada Center",
            "post_office": "Children Zia",
            "lat": 25.9005178,
            "lng": 32.7227029
        },
        {
            "postal_code": 83633,
            "address": "Gaat / Nakada Center",
            "post_office": "Gaat",
            "lat": 25.9005178,
            "lng": 32.7227029
        },
        {
            "postal_code": 83738,
            "address": "Alzafarah / Qeft",
            "post_office": "Alzafarah",
            "lat": 26.0001889,
            "lng": 32.8157208
        },
        {
            "postal_code": 83619,
            "address": "Town CFP / Dishna",
            "post_office": "CFP Dishna",
            "lat": 26.1254735,
            "lng": 32.4717074
        },
        {
            "postal_code": 83744,
            "address": "Shewaikhat / Mrkzkna",
            "post_office": "Shewaikhat",
            "lat": 26.155061,
            "lng": 32.7160121
        },
        {
            "postal_code": 83635,
            "address": "Alsberaat / Dishna Center",
            "post_office": "Alsberaat",
            "lat": 26.1254735,
            "lng": 32.4717074
        },
        {
            "postal_code": 83637,
            "address": "Town Almyat / Dishna Center",
            "post_office": "Almyat",
            "lat": 26.1254735,
            "lng": 32.4717074
        },
        {
            "postal_code": 83636,
            "address": "Aesthetic / Qous Center",
            "post_office": "Aesthetic Qous",
            "lat": 26.2346033,
            "lng": 32.98883190000001
        },
        {
            "postal_code": 83658,
            "address": "Nag Hammadi / beside Insurance",
            "post_office": "Nag Hammadi sub",
            "lat": 26.0451551,
            "lng": 32.2427609
        },
        {
            "postal_code": 83667,
            "address": "Republic / Farshout Center Street",
            "post_office": "Farshout sub",
            "lat": 26.0556406,
            "lng": 32.1675132
        },
        {
            "postal_code": 83659,
            "address": "Bathah / Nag Hammadi Center",
            "post_office": "Bathah",
            "lat": 26.0451551,
            "lng": 32.2427609
        },
        {
            "postal_code": 83746,
            "address": "Peninsula Abnoud / Qena Center",
            "post_office": "Island Abnoud",
            "lat": 26.058042,
            "lng": 32.7887007
        },
        {
            "postal_code": 83747,
            "address": "Alklahin / Qena Center",
            "post_office": "Alklahin Abnoud",
            "lat": 26.155061,
            "lng": 32.7160121
        },
        {
            "postal_code": 83793,
            "address": "East Smhod / Mrkzaw Tesht",
            "post_office": "East Smhod",
            "lat": 26.120136,
            "lng": 32.0939075
        },
        {
            "postal_code": 83748,
            "address": "Alghosh / city of Qena",
            "post_office": "Alghosh",
            "lat": 26.155061,
            "lng": 32.7160121
        },
        {
            "postal_code": 83749,
            "address": "Actinoides / Nag Hammadi Center",
            "post_office": "Actinoides",
            "lat": 26.0451551,
            "lng": 32.2427609
        },
        {
            "postal_code": 83788,
            "address": "Gnawi / Nag Hammadi Center / Qena village",
            "post_office": "Gnawi _ Nag Hammadi",
            "lat": 26.0451551,
            "lng": 32.2427609
        },
        {
            "postal_code": 83668,
            "address": "Abu Tesht / next to the railway",
            "post_office": "Abu Tesht sub",
            "lat": 26.120136,
            "lng": 32.0939075
        },
        {
            "postal_code": 83638,
            "address": "Azizia Dishna / Dishna Center / Canal sweetness",
            "post_office": "Azazih Dishna",
            "lat": 26.1254735,
            "lng": 32.4717074
        },
        {
            "postal_code": 83742,
            "address": "Zawaydeh / Nakada Center",
            "post_office": "Zawaydeh",
            "lat": 25.9005178,
            "lng": 32.7227029
        },
        {
            "postal_code": 83639,
            "address": "Maari / Qous Center",
            "post_office": "Maari",
            "lat": 26.2346033,
            "lng": 32.98883190000001
        },
        {
            "postal_code": 83669,
            "address": "Path / Nag Hammadi Center",
            "post_office": "Path",
            "lat": 26.0451551,
            "lng": 32.2427609
        },
        {
            "postal_code": 83751,
            "address": "Stub / Qous Center",
            "post_office": "Stub",
            "lat": 26.2346033,
            "lng": 32.98883190000001
        },
        {
            "postal_code": 83671,
            "address": "Almaqarin / Qous Center",
            "post_office": "Almaqarin",
            "lat": 25.9667584,
            "lng": 32.7888291
        },
        {
            "postal_code": 83672,
            "address": "Al_husinat / Abu Center Tesht",
            "post_office": "Al_husinat",
            "lat": 26.120136,
            "lng": 32.0939075
        },
        {
            "postal_code": 83673,
            "address": "Alhbashh / Nag Hammadi Center",
            "post_office": "Heisha",
            "lat": 26.0451551,
            "lng": 32.2427609
        },
        {
            "postal_code": 83523,
            "address": "Campus / city of Qena",
            "post_office": "University of Qena",
            "lat": 26.155061,
            "lng": 32.7160121
        },
        {
            "postal_code": 83674,
            "address": "Almmishqih / Qous Center",
            "post_office": "Almmishqih",
            "lat": 26.2346033,
            "lng": 32.98883190000001
        },
        {
            "postal_code": 83753,
            "address": "Palace / Nag Hammadi Center",
            "post_office": "Palace Nag Hammadi",
            "lat": 26.0451551,
            "lng": 32.2427609
        },
        {
            "postal_code": 83754,
            "address": "The monastery east / Qena Center",
            "post_office": "The monastery east",
            "lat": 26.155061,
            "lng": 32.7160121
        },
        {
            "postal_code": 83686,
            "address": "Qous / El Sheikh Othman Center",
            "post_office": "Qous sub",
            "lat": 27.9654198,
            "lng": 34.3617769
        },
        {
            "postal_code": 83521,
            "address": "Directorate city of Qena field",
            "post_office": "Directorate Qena field",
            "lat": 26.155061,
            "lng": 32.7160121
        },
        {
            "postal_code": 83677,
            "address": "Nag Hammadi",
            "post_office": "Influenza Balcherqa Bahgoura",
            "lat": 26.0451551,
            "lng": 32.2427609
        },
        {
            "postal_code": 83675,
            "address": "Kom Red / Farshout Center",
            "post_office": "Kom Red Farshout",
            "lat": 26.0556406,
            "lng": 32.1675132
        },
        {
            "postal_code": 83676,
            "address": "Yaichh / Qous Center",
            "post_office": "Yaiche",
            "lat": 26.2346033,
            "lng": 32.98883190000001
        },
        {
            "postal_code": 83522,
            "address": "Qena South / Bjawarjamah entrance of Al-Azhar",
            "post_office": "South Qena",
            "lat": 26.155061,
            "lng": 32.7160121
        },
        {
            "postal_code": 83755,
            "address": "Alnoavelh / Qena Center",
            "post_office": "Alnoavelh",
            "lat": 26.155061,
            "lng": 32.7160121
        },
        {
            "postal_code": 83756,
            "address": "Supervision East",
            "post_office": "Supervising East",
            "lat": 26.155061,
            "lng": 32.7160121
        },
        {
            "postal_code": 83758,
            "address": "Bear ward / Qeft",
            "post_office": "Well dormitory",
            "lat": 26.0001889,
            "lng": 32.8157208
        },
        {
            "postal_code": 83757,
            "address": "Ataiwarat / Qena Center",
            "post_office": "Ataiwarat",
            "lat": 26.155061,
            "lng": 32.7160121
        },
        {
            "postal_code": 83858,
            "address": "Manor Alboha / Abotst Center",
            "post_office": "Manor Alboha inch",
            "lat": 26.155061,
            "lng": 32.7160121
        },
        {
            "postal_code": 83683,
            "address": "Nag Kaboul / Nag Hammadi Center",
            "post_office": "Nag Kaboul",
            "lat": 26.0451551,
            "lng": 32.2427609
        },
        {
            "postal_code": 83678,
            "address": "Nag Azzouz / Dishna Center",
            "post_office": "Nag Azouz",
            "lat": 26.1254735,
            "lng": 32.4717074
        },
        {
            "postal_code": 83682,
            "address": "Halfaya tribal / Nag Hammadi Center",
            "post_office": "Halfaya tribal",
            "lat": 26.0451551,
            "lng": 32.2427609
        },
        {
            "postal_code": 83681,
            "address": "Achaorip / Nag Hammadi Center",
            "post_office": "Achaorip",
            "lat": 26.0451551,
            "lng": 32.2427609
        },
        {
            "postal_code": 83789,
            "address": "Village East Smhod / Abu Center Tesht / Qena",
            "post_office": "East Smhod",
            "lat": 26.120136,
            "lng": 32.0939075
        },
        {
            "postal_code": 83759,
            "address": "Ataiwabih / Qena Center",
            "post_office": "Ataiwabih",
            "lat": 26.155061,
            "lng": 32.7160121
        },
        {
            "postal_code": 83679,
            "address": "Dishna / Nag happy Center",
            "post_office": "Nag happy",
            "lat": 26.1254735,
            "lng": 32.4717074
        },
        {
            "postal_code": 83762,
            "address": "Nag Hujairi castle Qeft",
            "post_office": "Modern enlightening",
            "lat": 26.0451551,
            "lng": 32.2427609
        },
        {
            "postal_code": 83761,
            "address": "Umrah / Abu Center Tesht",
            "post_office": "Umrah",
            "lat": 26.120136,
            "lng": 32.0939075
        },
        {
            "postal_code": 83687,
            "address": "Alhijazh tribal / Qous Center",
            "post_office": "New tribal Hijazh",
            "lat": 26.2346033,
            "lng": 32.98883190000001
        },
        {
            "postal_code": 83765,
            "address": "Inside the sugar / Nag Hammadi center factory",
            "post_office": "Qeft sub",
            "lat": 26.0451551,
            "lng": 32.2427609
        },
        {
            "postal_code": 83694,
            "address": "Enlightening / Qena Center",
            "post_office": "Sugar Nag Hammadi",
            "lat": 26.155061,
            "lng": 32.7160121
        },
        {
            "postal_code": 83791,
            "address": "Kherangh / Mrkzkos",
            "post_office": "Nag Hujairi",
            "lat": 26.155061,
            "lng": 32.7160121
        },
        {
            "postal_code": 83689,
            "address": "Qous Center",
            "post_office": "Kherangh",
            "lat": 26.2346033,
            "lng": 32.98883190000001
        },
        {
            "postal_code": 83792,
            "address": "Village hungry Baerky Farshout Center",
            "post_office": "Ghanem hungry",
            "lat": 26.0556406,
            "lng": 32.1675132
        },
        {
            "postal_code": 83764,
            "address": "Asamanip / Endowment Center",
            "post_office": "Asamanip",
            "lat": 26.155061,
            "lng": 32.7160121
        },
        {
            "postal_code": 83692,
            "address": "Alclash / Qous Center",
            "post_office": "Alclash",
            "lat": 26.2346033,
            "lng": 32.98883190000001
        },
        {
            "postal_code": 83693,
            "address": "Manor Captain / Nag Hammadi Center",
            "post_office": "Captain manor",
            "lat": 26.0451551,
            "lng": 32.2427609
        },
        {
            "postal_code": 83695,
            "address": "Abu Diab east / Dishna Center",
            "post_office": "Abudiab East",
            "lat": 26.1254735,
            "lng": 32.4717074
        },
        {
            "postal_code": 83767,
            "address": "Manor Alfy / Dishna Center",
            "post_office": "Manor Alfi",
            "lat": 26.1254735,
            "lng": 32.4717074
        },
        {
            "postal_code": 83766,
            "address": "Next to the Temple of Dendera / Qena Center",
            "post_office": "Tourism Dandara",
            "lat": 26.1419465,
            "lng": 32.6701903
        },
        {
            "postal_code": 83697,
            "address": "Alkhaddarat / Nag Hammadi Center",
            "post_office": "Alkhaddarat",
            "lat": 26.0451551,
            "lng": 32.2427609
        },
        {
            "postal_code": 83768,
            "address": "Abu Center Tesht",
            "post_office": "Marine Smhod",
            "lat": 26.120136,
            "lng": 32.0939075
        },
        {
            "postal_code": 83769,
            "address": "Maharzh / Abu Center Tesht",
            "post_office": "Maharzh",
            "lat": 26.120136,
            "lng": 32.0939075
        },
        {
            "postal_code": 83771,
            "address": "Khattara / Nakada Center",
            "post_office": "Ataiwabih Island",
            "lat": 25.9005178,
            "lng": 32.7227029
        },
        {
            "postal_code": 83772,
            "address": "Gabriel Manor / Qena Center",
            "post_office": "Jibril manor",
            "lat": 26.155061,
            "lng": 32.7160121
        },
        {
            "postal_code": 83696,
            "address": "Hamoudi Island / Endowment Center",
            "post_office": "Dzerhalhmoudi",
            "lat": 26.155061,
            "lng": 32.7160121
        },
        {
            "postal_code": 83784,
            "address": "Village Aldhsh / Farshout Center",
            "post_office": "Aldhsh",
            "lat": 26.0556406,
            "lng": 32.1675132
        },
        {
            "postal_code": 83774,
            "address": "Com hyena / Mrkznqadeh",
            "post_office": "Com hyena",
            "lat": 25.9306568,
            "lng": 32.7355346
        },
        {
            "postal_code": 83595,
            "address": "Meaning - Qena",
            "post_office": "Suzanne Mubarak Center",
            "lat": 26.155061,
            "lng": 32.7160121
        },
        {
            "postal_code": 83813,
            "address": "Nag Hammadi / Qena",
            "post_office": "Western Bahgoura Claalh",
            "lat": 26.0451551,
            "lng": 32.2427609
        },
        {
            "postal_code": 83815,
            "address": "Salem _ Nag Nag Hammadi",
            "post_office": "Nag Salem",
            "lat": 26.0451551,
            "lng": 32.2427609
        },
        {
            "postal_code": 83814,
            "address": "Nag Hammadi",
            "post_office": "Nag Hammadi second",
            "lat": 26.0451551,
            "lng": 32.2427609
        },
        {
            "postal_code": 83798,
            "address": "Brahmins",
            "post_office": "Nag Arabism",
            "lat": 26.155061,
            "lng": 32.7160121
        },
        {
            "postal_code": 83524,
            "address": "Building of the recruitment area Qena (office closed)",
            "post_office": "Recruiting Qena",
            "lat": 26.1567447,
            "lng": 32.7352365
        },
        {
            "postal_code": 83793,
            "address": "Qena Industrial Zone - Freeze",
            "post_office": "Industrial Area",
            "lat": 26.155061,
            "lng": 32.7160121
        },
        {
            "postal_code": 83793,
            "address": "The Center / Qus Center",
            "post_office": "The counselor",
            "lat": 25.9181328,
            "lng": 32.7596825
        },
        {
            "postal_code": 83794,
            "address": "Directorate of recruitment / Qena",
            "post_office": "Aljhareed (Abu Manna tribal)",
            "lat": 26.155061,
            "lng": 32.7160121
        },
        {
            "postal_code": 83736,
            "address": "Karam Omran / Qena Center",
            "post_office": "Karam Imran",
            "lat": 26.0665873,
            "lng": 32.8169122
        },
        {
            "postal_code": 83712,
            "address": "Trams / Qena Center",
            "post_office": "Trams",
            "lat": 26.155061,
            "lng": 32.7160121
        },
        {
            "postal_code": 83737,
            "address": "National Center / Deshna Center",
            "post_office": "National Maritime Organization",
            "lat": 26.1253766,
            "lng": 32.4718933
        },
        {
            "postal_code": 83621,
            "address": "Alhajsa tribal / Center Qus / Center Farshout",
            "post_office": "Hjazah tribal",
            "lat": 25.9181328,
            "lng": 32.7596825
        }
    ]
}